[{"OBJECT_NAME":"STARLINK-11676 [DTC]","OBJECT_ID":"2025-089G","EPOCH":"2025-12-31T07:05:19.980960","MEAN_MOTION":15.70915874,"ECCENTRICITY":0.00015337,"INCLINATION":42.9989,"RA_OF_ASC_NODE":344.0733,"ARG_OF_PERICENTER":278.5691,"MEAN_ANOMALY":81.5002,"EPHEMERIS_TYPE":0,"CLASSIFICATION_TYPE":"U","NORAD_CAT_ID":63757,"ELEMENT_SET_NO":999,"REV_AT_EPOCH":3927,"BSTAR":0.0011808713,"MEAN_MOTION_DOT":0.00154412,"MEAN_MOTION_DDOT":0},{"OBJECT_NAME":"STARLINK-11705 [DTC]","OBJECT_ID":"2025-089H","EPOCH":"2025-12-31T00:28:42.188736","MEAN_MOTION":15.70860785,"ECCENTRICITY":0.00015953,"INCLINATION":42.9992,"RA_OF_ASC_NODE":346.331,"ARG_OF_PERICENTER":278.2983,"MEAN_ANOMALY":81.7703,"EPHEMERIS_TYPE":0,"CLASSIFICATION_TYPE":"U","NORAD_CAT_ID":63758,"ELEMENT_SET_NO":999,"REV_AT_EPOCH":3928,"BSTAR":0.0025310623,"MEAN_MOTION_DOT":0.00338186,"MEAN_MOTION_DDOT":0},{"OBJECT_NAME":"STARLINK-11703 [DTC]","OBJECT_ID":"2025-089J","EPOCH":"2025-12-30T08:42:31.588704","MEAN_MOTION":15.70902038,"ECCENTRICITY":0.000144,"INCLINATION":42.9992,"RA_OF_ASC_NODE":349.9928,"ARG_OF_PERICENTER":270.6535,"MEAN_ANOMALY":89.4168,"EPHEMERIS_TYPE":0,"CLASSIFICATION_TYPE":"U","NORAD_CAT_ID":63759,"ELEMENT_SET_NO":999,"REV_AT_EPOCH":3923,"BSTAR":0.0022746098,"MEAN_MOTION_DOT":0.00303102,"MEAN_MOTION_DDOT":0},{"OBJECT_NAME":"STARLINK-11701 [DTC]","OBJECT_ID":"2025-089K","EPOCH":"2025-12-31T07:12:59.189184","MEAN_MOTION":15.71199986,"ECCENTRICITY":0.00021537,"INCLINATION":42.9992,"RA_OF_ASC_NODE":344.114,"ARG_OF_PERICENTER":290.5597,"MEAN_ANOMALY":69.504,"EPHEMERIS_TYPE":0,"CLASSIFICATION_TYPE":"U","NORAD_CAT_ID":63760,"ELEMENT_SET_NO":999,"REV_AT_EPOCH":3938,"BSTAR":0.0032183235,"MEAN_MOTION_DOT":0.00441853,"MEAN_MOTION_DDOT":0},{"OBJECT_NAME":"STARLINK-11660 [DTC]","OBJECT_ID":"2025-089L","EPOCH":"2025-12-30T23:50:28.476096","MEAN_MOTION":15.71101464,"ECCENTRICITY":0.00016775,"INCLINATION":42.9989,"RA_OF_ASC_NODE":346.1161,"ARG_OF_PERICENTER":230.2905,"MEAN_ANOMALY":129.7815,"EPHEMERIS_TYPE":0,"CLASSIFICATION_TYPE":"U","NORAD_CAT_ID":63761,"ELEMENT_SET_NO":999,"REV_AT_EPOCH":3928,"BSTAR":0.0031469888,"MEAN_MOTION_DOT":0.0042963,"MEAN_MOTION_DDOT":0},{"OBJECT_NAME":"STARLINK-11699 [DTC]","OBJECT_ID":"2025-089M","EPOCH":"2025-12-30T23:20:04.782912","MEAN_MOTION":15.70992143,"ECCENTRICITY":0.00011283,"INCLINATION":42.9963,"RA_OF_ASC_NODE":346.839,"ARG_OF_PERICENTER":199.9685,"MEAN_ANOMALY":160.1138,"EPHEMERIS_TYPE":0,"CLASSIFICATION_TYPE":"U","NORAD_CAT_ID":63762,"ELEMENT_SET_NO":999,"REV_AT_EPOCH":3932,"BSTAR":0.0022600952,"MEAN_MOTION_DOT":0.0030228,"MEAN_MOTION_DDOT":0},{"OBJECT_NAME":"STARLINK-11693 [DTC]","OBJECT_ID":"2025-089N","EPOCH":"2025-12-30T10:15:23.348448","MEAN_MOTION":15.70840735,"ECCENTRICITY":0.00025738,"INCLINATION":42.9975,"RA_OF_ASC_NODE":349.6159,"ARG_OF_PERICENTER":235.2296,"MEAN_ANOMALY":124.833,"EPHEMERIS_TYPE":0,"CLASSIFICATION_TYPE":"U","NORAD_CAT_ID":63763,"ELEMENT_SET_NO":999,"REV_AT_EPOCH":3913,"BSTAR":0.0021631687,"MEAN_MOTION_DOT":0.0028693,"MEAN_MOTION_DDOT":0},{"OBJECT_NAME":"STARLINK-33760","OBJECT_ID":"2025-089P","EPOCH":"2025-12-31T05:07:34.767840","MEAN_MOTION":15.27587336,"ECCENTRICITY":0.00016021,"INCLINATION":42.9992,"RA_OF_ASC_NODE":72.0708,"ARG_OF_PERICENTER":283.1043,"MEAN_ANOMALY":76.963,"EPHEMERIS_TYPE":0,"CLASSIFICATION_TYPE":"U","NORAD_CAT_ID":63764,"ELEMENT_SET_NO":999,"REV_AT_EPOCH":3848,"BSTAR":0.0013328053,"MEAN_MOTION_DOT":0.00036605,"MEAN_MOTION_DDOT":0},{"OBJECT_NAME":"STARLINK-33941","OBJECT_ID":"2025-089Q","EPOCH":"2025-12-31T05:11:16.329408","MEAN_MOTION":15.2759658,"ECCENTRICITY":0.00012792,"INCLINATION":42.9983,"RA_OF_ASC_NODE":72.0897,"ARG_OF_PERICENTER":266.843,"MEAN_ANOMALY":93.2275,"EPHEMERIS_TYPE":0,"CLASSIFICATION_TYPE":"U","NORAD_CAT_ID":63765,"ELEMENT_SET_NO":999,"REV_AT_EPOCH":3847,"BSTAR":0.001006653,"MEAN_MOTION_DOT":0.00027556,"MEAN_MOTION_DDOT":0},{"OBJECT_NAME":"STARLINK-33824","OBJECT_ID":"2025-089R","EPOCH":"2025-12-31T05:35:19.777056","MEAN_MOTION":15.27599572,"ECCENTRICITY":0.00011172,"INCLINATION":43.0011,"RA_OF_ASC_NODE":72.2246,"ARG_OF_PERICENTER":266.2953,"MEAN_ANOMALY":93.7771,"EPHEMERIS_TYPE":0,"CLASSIFICATION_TYPE":"U","NORAD_CAT_ID":63766,"ELEMENT_SET_NO":999,"REV_AT_EPOCH":3848,"BSTAR":0.00146524,"MEAN_MOTION_DOT":0.00040303,"MEAN_MOTION_DDOT":0},{"OBJECT_NAME":"STARLINK-33808","OBJECT_ID":"2025-089S","EPOCH":"2025-12-31T04:54:37.930752","MEAN_MOTION":15.27622809,"ECCENTRICITY":7.99e-5,"INCLINATION":42.9947,"RA_OF_ASC_NODE":72.001,"ARG_OF_PERICENTER":321.9708,"MEAN_ANOMALY":38.1087,"EPHEMERIS_TYPE":0,"CLASSIFICATION_TYPE":"U","NORAD_CAT_ID":63767,"ELEMENT_SET_NO":999,"REV_AT_EPOCH":3848,"BSTAR":0.0018795214,"MEAN_MOTION_DOT":0.00051891,"MEAN_MOTION_DDOT":0},{"OBJECT_NAME":"STARLINK-33844","OBJECT_ID":"2025-089T","EPOCH":"2025-12-30T14:19:27.011424","MEAN_MOTION":15.2759475,"ECCENTRICITY":0.0001234,"INCLINATION":43.0025,"RA_OF_ASC_NODE":75.1801,"ARG_OF_PERICENTER":237.7982,"MEAN_ANOMALY":122.2751,"EPHEMERIS_TYPE":0,"CLASSIFICATION_TYPE":"U","NORAD_CAT_ID":63768,"ELEMENT_SET_NO":999,"REV_AT_EPOCH":3839,"BSTAR":0.0011845,"MEAN_MOTION_DOT":0.00032492,"MEAN_MOTION_DDOT":0},{"OBJECT_NAME":"STARLINK-33907","OBJECT_ID":"2025-089U","EPOCH":"2025-12-31T05:02:01.550688","MEAN_MOTION":15.27602291,"ECCENTRICITY":0.00012678,"INCLINATION":43.0005,"RA_OF_ASC_NODE":72.0403,"ARG_OF_PERICENTER":270.5616,"MEAN_ANOMALY":89.509,"EPHEMERIS_TYPE":0,"CLASSIFICATION_TYPE":"U","NORAD_CAT_ID":63769,"ELEMENT_SET_NO":999,"REV_AT_EPOCH":3843,"BSTAR":0.001771434,"MEAN_MOTION_DOT":0.00048841,"MEAN_MOTION_DDOT":0},{"OBJECT_NAME":"STARLINK-33884","OBJECT_ID":"2025-089V","EPOCH":"2025-12-31T06:02:52.645344","MEAN_MOTION":15.27588862,"ECCENTRICITY":0.0001675,"INCLINATION":43.0004,"RA_OF_ASC_NODE":71.494,"ARG_OF_PERICENTER":281.1469,"MEAN_ANOMALY":78.9194,"EPHEMERIS_TYPE":0,"CLASSIFICATION_TYPE":"U","NORAD_CAT_ID":63770,"ELEMENT_SET_NO":999,"REV_AT_EPOCH":3844,"BSTAR":0.001422678,"MEAN_MOTION_DOT":0.00039106,"MEAN_MOTION_DDOT":0},{"OBJECT_NAME":"STARLINK-33841","OBJECT_ID":"2025-089W","EPOCH":"2025-12-30T14:32:24.062784","MEAN_MOTION":15.2759326,"ECCENTRICITY":0.0001435,"INCLINATION":43.0019,"RA_OF_ASC_NODE":75.2471,"ARG_OF_PERICENTER":247.3666,"MEAN_ANOMALY":112.7034,"EPHEMERIS_TYPE":0,"CLASSIFICATION_TYPE":"U","NORAD_CAT_ID":63771,"ELEMENT_SET_NO":999,"REV_AT_EPOCH":3834,"BSTAR":0.0010909,"MEAN_MOTION_DOT":0.00029891,"MEAN_MOTION_DDOT":0},{"OBJECT_NAME":"STARLINK-33769","OBJECT_ID":"2025-089X","EPOCH":"2025-12-30T14:17:35.882880","MEAN_MOTION":15.27610013,"ECCENTRICITY":0.0001195,"INCLINATION":43.0033,"RA_OF_ASC_NODE":75.1686,"ARG_OF_PERICENTER":251.6559,"MEAN_ANOMALY":108.4163,"EPHEMERIS_TYPE":0,"CLASSIFICATION_TYPE":"U","NORAD_CAT_ID":63773,"ELEMENT_SET_NO":999,"REV_AT_EPOCH":3838,"BSTAR":0.0019223,"MEAN_MOTION_DOT":0.00053065,"MEAN_MOTION_DDOT":0}]
