STARLINK-11676 [DTC]    
1 63757U 25089G   25365.29537015  .00154412  00000+0  11809-2 0  9992
2 63757  42.9989 344.0733 0001533 278.5691  81.5002 15.70915874 39279
STARLINK-11705 [DTC]    
1 63758U 25089H   25365.01993274  .00338186  00000+0  25311-2 0  9991
2 63758  42.9992 346.3310 0001595 278.2983  81.7703 15.70860785 39280
STARLINK-11703 [DTC]    
1 63759U 25089J   25364.36286561  .00303102  00000+0  22746-2 0  9992
2 63759  42.9992 349.9928 0001440 270.6535  89.4168 15.70902038 39236
STARLINK-11701 [DTC]    
1 63760U 25089K   25365.30068506  .00441853  00000+0  32183-2 0  9998
2 63760  42.9992 344.1140 0002153 290.5597  69.5040 15.71199986 39387
STARLINK-11660 [DTC]    
1 63761U 25089L   25364.99338514  .00429630  00000+0  31470-2 0  9999
2 63761  42.9989 346.1161 0001677 230.2905 129.7815 15.71101464 39285
STARLINK-11699 [DTC]    
1 63762U 25089M   25364.97227758  .00302280  00000+0  22601-2 0  9992
2 63762  42.9963 346.8390 0001128 199.9685 160.1138 15.70992143 39329
STARLINK-11693 [DTC]    
1 63763U 25089N   25364.42735357  .00286930  00000+0  21632-2 0  9998
2 63763  42.9975 349.6159 0002573 235.2296 124.8330 15.70840735 39133
STARLINK-33760          
1 63764U 25089P   25365.21359685  .00036605  00000+0  13328-2 0  9998
2 63764  42.9992  72.0708 0001602 283.1043  76.9630 15.27587336 38488
STARLINK-33941          
1 63765U 25089Q   25365.21616122  .00027556  00000+0  10067-2 0  9993
2 63765  42.9983  72.0897 0001279 266.8430  93.2275 15.27596580 38473
STARLINK-33824          
1 63766U 25089R   25365.23286779  .00040303  00000+0  14652-2 0  9996
2 63766  43.0011  72.2246 0001117 266.2953  93.7771 15.27599572 38484
STARLINK-33808          
1 63767U 25089S   25365.20460568  .00051891  00000+0  18795-2 0  9990
2 63767  42.9947  72.0010 0000799 321.9708  38.1087 15.27622809 38483
STARLINK-33844          
1 63768U 25089T   25364.59684041  .00032492  00000+0  11845-2 0  9991
2 63768  43.0025  75.1801 0001234 237.7982 122.2751 15.27594750 38394
STARLINK-33907          
1 63769U 25089U   25365.20974017  .00048841  00000+0  17714-2 0  9992
2 63769  43.0005  72.0403 0001267 270.5616  89.5090 15.27602291 38438
STARLINK-33884          
1 63770U 25089V   25365.25199821  .00039106  00000+0  14227-2 0  9991
2 63770  43.0004  71.4940 0001675 281.1469  78.9194 15.27588862 38440
STARLINK-33841          
1 63771U 25089W   25364.60583406  .00029891  00000+0  10909-2 0  9999
2 63771  43.0019  75.2471 0001435 247.3666 112.7034 15.27593260 38342
STARLINK-33769          
1 63773U 25089X   25364.59555420  .00053065  00000+0  19223-2 0  9992
2 63773  43.0033  75.1686 0001195 251.6559 108.4163 15.27610013 38384
